start=new Date('2022-04-27T00:00:00.000Z').valueOf();
sats=[{"MEAN_MOTION_DOT":"0.00001010","EPHEMERIS_TYPE":"0","MEAN_MOTION_DDOT":"0.0000000000000","EPOCH":"2022-04-26T16:24:14.660928","SEMIMAJOR_AXIS":"6925.348","DECAY_DATE":null,"TIME_SYSTEM":"UTC","TLE_LINE1":"1 45748U 20038U   22116.68350302  .00001010  00000-0  86713-4 0  9991","NORAD_CAT_ID":"45748","ARG_OF_PERICENTER":"56.4220","PERIOD":"95.592","GP_ID":"202108045","MEAN_ELEMENT_THEORY":"SGP4","OBJECT_NAME":"STARLINK-1507","OBJECT_TYPE":"PAYLOAD","MEAN_MOTION":"15.06400079","REV_AT_EPOCH":"10321","TLE_LINE2":"2 45748  53.0544  99.8412 0001708  56.4220 303.6932 15.06400079103214","RA_OF_ASC_NODE":"99.8412","ELEMENT_SET_NO":"999","REF_FRAME":"TEME","PERIAPSIS":"546.030","COUNTRY_CODE":"US","RCS_SIZE":"LARGE","CLASSIFICATION_TYPE":"U","CENTER_NAME":"EARTH","SITE":"AFETR","OBJECT_ID":"2020-038U","LAUNCH_DATE":"2020-06-13","MEAN_ANOMALY":"303.6932","ECCENTRICITY":"0.00017080","FILE":"3417474","APOAPSIS":"548.396","BSTAR":"0.00008671300000","INCLINATION":"53.0544"},{"BSTAR":"0.00021334000000","INCLINATION":"53.0538","FILE":"3417035","APOAPSIS":"548.485","MEAN_ANOMALY":"307.0710","ECCENTRICITY":"0.00018540","LAUNCH_DATE":"2020-06-13","OBJECT_ID":"2020-038W","SITE":"AFETR","CENTER_NAME":"EARTH","RCS_SIZE":"LARGE","CLASSIFICATION_TYPE":"U","COUNTRY_CODE":"US","PERIAPSIS":"545.918","REF_FRAME":"TEME","ELEMENT_SET_NO":"999","RA_OF_ASC_NODE":"82.1048","TLE_LINE2":"2 45750  53.0538  82.1048 0001854  53.0449 307.0710 15.06403941103435","REV_AT_EPOCH":"10343","MEAN_MOTION":"15.06403941","OBJECT_TYPE":"PAYLOAD","OBJECT_NAME":"STARLINK-1391","MEAN_ELEMENT_THEORY":"SGP4","GP_ID":"202072382","ARG_OF_PERICENTER":"53.0449","PERIOD":"95.592","NORAD_CAT_ID":"45750","TLE_LINE1":"1 45750U 20038W   22116.18132041  .00002898  00000-0  21334-3 0  9999","TIME_SYSTEM":"UTC","DECAY_DATE":null,"SEMIMAJOR_AXIS":"6925.336","EPOCH":"2022-04-26T04:21:06.083424","EPHEMERIS_TYPE":"0","MEAN_MOTION_DDOT":"0.0000000000000","MEAN_MOTION_DOT":"0.00002898"},{"MEAN_MOTION_DDOT":"0.0000000000000","EPHEMERIS_TYPE":"0","MEAN_MOTION_DOT":"0.00001900","DECAY_DATE":null,"SEMIMAJOR_AXIS":"6925.355","TIME_SYSTEM":"UTC","EPOCH":"2022-04-26T04:15:47.365920","GP_ID":"202073634","MEAN_ELEMENT_THEORY":"SGP4","PERIOD":"95.592","ARG_OF_PERICENTER":"49.4102","TLE_LINE1":"1 45751U 20038X   22116.17763155  .00001900  00000-0  14644-3 0  9994","NORAD_CAT_ID":"45751","REV_AT_EPOCH":"10343","MEAN_MOTION":"15.06397756","TLE_LINE2":"2 45751  53.0562  82.1230 0001851  49.4102 310.7048 15.06397756103439","OBJECT_NAME":"STARLINK-1464","OBJECT_TYPE":"PAYLOAD","RA_OF_ASC_NODE":"82.1230","ELEMENT_SET_NO":"999","CLASSIFICATION_TYPE":"U","RCS_SIZE":"LARGE","PERIAPSIS":"545.939","COUNTRY_CODE":"US","REF_FRAME":"TEME","SITE":"AFETR","CENTER_NAME":"EARTH","APOAPSIS":"548.502","FILE":"3417035","BSTAR":"0.00014644000000","INCLINATION":"53.0562","OBJECT_ID":"2020-038X","MEAN_ANOMALY":"310.7048","ECCENTRICITY":"0.00018510","LAUNCH_DATE":"2020-06-13"},{"ELEMENT_SET_NO":"999","RA_OF_ASC_NODE":"152.8961","REF_FRAME":"TEME","PERIAPSIS":"336.258","COUNTRY_CODE":"US","CLASSIFICATION_TYPE":"U","RCS_SIZE":"LARGE","CENTER_NAME":"EARTH","SITE":"AFETR","LAUNCH_DATE":"2020-06-13","ECCENTRICITY":"0.00046810","MEAN_ANOMALY":"54.4084","OBJECT_ID":"2020-038Y","BSTAR":"0.00053545000000","INCLINATION":"52.9983","APOAPSIS":"342.547","FILE":"3417474","MEAN_MOTION_DOT":"0.00088391","MEAN_MOTION_DDOT":"0.0000000000000","EPHEMERIS_TYPE":"0","EPOCH":"2022-04-26T19:56:13.932384","TIME_SYSTEM":"UTC","SEMIMAJOR_AXIS":"6717.538","DECAY_DATE":null,"NORAD_CAT_ID":"45752","TLE_LINE1":"1 45752U 20038Y   22116.83071681  .00088391  00000-0  53545-3 0  9996","ARG_OF_PERICENTER":"305.6498","PERIOD":"91.322","GP_ID":"202108798","MEAN_ELEMENT_THEORY":"SGP4","OBJECT_TYPE":"PAYLOAD","OBJECT_NAME":"STARLINK-1469","TLE_LINE2":"2 45752  52.9983 152.8961 0004681 305.6498  54.4084 15.76839865107491","MEAN_MOTION":"15.76839865","REV_AT_EPOCH":"10749"},{"OBJECT_TYPE":"PAYLOAD","OBJECT_NAME":"STARLINK-1476","TLE_LINE2":"2 45753  53.0555  82.0819 0001988  51.3011 308.8156 15.06408434103431","REV_AT_EPOCH":"10343","MEAN_MOTION":"15.06408434","ARG_OF_PERICENTER":"51.3011","PERIOD":"95.592","TLE_LINE1":"1 45753U 20038Z   22116.18868801 -.00003848  00000-0 -23947-3 0  9992","NORAD_CAT_ID":"45753","MEAN_ELEMENT_THEORY":"SGP4","GP_ID":"202072633","EPOCH":"2022-04-26T04:31:42.644064","TIME_SYSTEM":"UTC","DECAY_DATE":null,"SEMIMAJOR_AXIS":"6925.323","MEAN_MOTION_DOT":"-0.00003848","EPHEMERIS_TYPE":"0","MEAN_MOTION_DDOT":"0.0000000000000","MEAN_ANOMALY":"308.8156","ECCENTRICITY":"0.00019880","LAUNCH_DATE":"2020-06-13","OBJECT_ID":"2020-038Z","INCLINATION":"53.0555","BSTAR":"-0.00023947000000","FILE":"3417035","APOAPSIS":"548.564","CENTER_NAME":"EARTH","SITE":"AFETR","REF_FRAME":"TEME","CLASSIFICATION_TYPE":"U","RCS_SIZE":"LARGE","PERIAPSIS":"545.811","COUNTRY_CODE":"US","ELEMENT_SET_NO":"999","RA_OF_ASC_NODE":"82.0819"},{"MEAN_ELEMENT_THEORY":"SGP4","GP_ID":"202107792","NORAD_CAT_ID":"45754","TLE_LINE1":"1 45754U 20038AA  22116.59046868 -.00002216  00000-0 -12993-3 0  9996","ARG_OF_PERICENTER":"61.4377","PERIOD":"95.593","MEAN_MOTION":"15.06384031","REV_AT_EPOCH":"10349","TLE_LINE2":"2 45754  53.0541  80.2651 0001772  61.4377 298.6790 15.06384031103491","OBJECT_NAME":"STARLINK-1477","OBJECT_TYPE":"PAYLOAD","MEAN_MOTION_DDOT":"0.0000000000000","EPHEMERIS_TYPE":"0","MEAN_MOTION_DOT":"-0.00002216","SEMIMAJOR_AXIS":"6925.398","DECAY_DATE":null,"TIME_SYSTEM":"UTC","EPOCH":"2022-04-26T14:10:16.493952","SITE":"AFETR","CENTER_NAME":"EARTH","APOAPSIS":"548.490","FILE":"3417474","INCLINATION":"53.0541","BSTAR":"-0.00012993000000","OBJECT_ID":"2020-038AA","LAUNCH_DATE":"2020-06-13","ECCENTRICITY":"0.00017720","MEAN_ANOMALY":"298.6790","RA_OF_ASC_NODE":"80.2651","ELEMENT_SET_NO":"999","PERIAPSIS":"546.035","COUNTRY_CODE":"US","RCS_SIZE":"LARGE","CLASSIFICATION_TYPE":"U","REF_FRAME":"TEME"},{"REF_FRAME":"TEME","PERIAPSIS":"546.126","COUNTRY_CODE":"US","CLASSIFICATION_TYPE":"U","RCS_SIZE":"LARGE","ELEMENT_SET_NO":"999","RA_OF_ASC_NODE":"81.6824","LAUNCH_DATE":"2020-06-13","MEAN_ANOMALY":"271.2188","ECCENTRICITY":"0.00015370","OBJECT_ID":"2020-038AB","INCLINATION":"53.0549","BSTAR":"0.00012784000000","FILE":"3417035","APOAPSIS":"548.255","CENTER_NAME":"EARTH","SITE":"AFETR","EPOCH":"2022-04-26T06:39:05.488704","TIME_SYSTEM":"UTC","SEMIMAJOR_AXIS":"6925.326","DECAY_DATE":null,"MEAN_MOTION_DOT":"0.00001624","MEAN_MOTION_DDOT":"0.0000000000000","EPHEMERIS_TYPE":"0","OBJECT_TYPE":"PAYLOAD","OBJECT_NAME":"STARLINK-1478","TLE_LINE2":"2 45755  53.0549  81.6824 0001537  88.8977 271.2188 15.06407519103434","MEAN_MOTION":"15.06407519","REV_AT_EPOCH":"10343","TLE_LINE1":"1 45755U 20038AB  22116.27714686  .00001624  00000-0  12784-3 0  9990","NORAD_CAT_ID":"45755","ARG_OF_PERICENTER":"88.8977","PERIOD":"95.592","GP_ID":"202073134","MEAN_ELEMENT_THEORY":"SGP4"},{"INCLINATION":"53.0541","BSTAR":"0.00050958000000","APOAPSIS":"548.420","FILE":"3417474","ECCENTRICITY":"0.00018060","MEAN_ANOMALY":"304.0767","LAUNCH_DATE":"2020-06-13","OBJECT_ID":"2020-038AC","SITE":"AFETR","CENTER_NAME":"EARTH","RCS_SIZE":"LARGE","CLASSIFICATION_TYPE":"U","COUNTRY_CODE":"US","PERIAPSIS":"545.918","REF_FRAME":"TEME","ELEMENT_SET_NO":"999","RA_OF_ASC_NODE":"80.2067","TLE_LINE2":"2 45756  53.0541  80.2067 0001806  56.0393 304.0767 15.06414479103485","REV_AT_EPOCH":"10348","MEAN_MOTION":"15.06414479","OBJECT_TYPE":"PAYLOAD","OBJECT_NAME":"STARLINK-1484","GP_ID":"202109299","MEAN_ELEMENT_THEORY":"SGP4","ARG_OF_PERICENTER":"56.0393","PERIOD":"95.591","NORAD_CAT_ID":"45756","TLE_LINE1":"1 45756U 20038AC  22116.60520242  .00007320  00000-0  50958-3 0  9995","TIME_SYSTEM":"UTC","DECAY_DATE":null,"SEMIMAJOR_AXIS":"6925.304","EPOCH":"2022-04-26T14:31:29.489088","EPHEMERIS_TYPE":"0","MEAN_MOTION_DDOT":"0.0000000000000","MEAN_MOTION_DOT":"0.00007320"},{"ARG_OF_PERICENTER":"48.8609","PERIOD":"95.592","TLE_LINE1":"1 45757U 20038AD  22116.62363538  .00001803  00000-0  13990-3 0  9996","NORAD_CAT_ID":"45757","GP_ID":"202108046","MEAN_ELEMENT_THEORY":"SGP4","OBJECT_TYPE":"PAYLOAD","OBJECT_NAME":"STARLINK-1486","TLE_LINE2":"2 45757  53.0539  80.1199 0001950  48.8609 311.2548 15.06399757103485","REV_AT_EPOCH":"10348","MEAN_MOTION":"15.06399757","MEAN_MOTION_DOT":"0.00001803","MEAN_MOTION_DDOT":"0.0000000000000","EPHEMERIS_TYPE":"0","EPOCH":"2022-04-26T14:58:02.096832","TIME_SYSTEM":"UTC","DECAY_DATE":null,"SEMIMAJOR_AXIS":"6925.349","CENTER_NAME":"EARTH","SITE":"AFETR","MEAN_ANOMALY":"311.2548","ECCENTRICITY":"0.00019500","LAUNCH_DATE":"2020-06-13","OBJECT_ID":"2020-038AD","BSTAR":"0.00013990000000","INCLINATION":"53.0539","APOAPSIS":"548.565","FILE":"3417474","ELEMENT_SET_NO":"999","RA_OF_ASC_NODE":"80.1199","REF_FRAME":"TEME","CLASSIFICATION_TYPE":"U","RCS_SIZE":"LARGE","PERIAPSIS":"545.864","COUNTRY_CODE":"US"},{"MEAN_MOTION_DOT":"0.00002977","MEAN_MOTION_DDOT":"0.0000000000000","EPHEMERIS_TYPE":"0","EPOCH":"2022-04-26T21:09:34.204032","DECAY_DATE":null,"SEMIMAJOR_AXIS":"6925.342","TIME_SYSTEM":"UTC","ARG_OF_PERICENTER":"48.5789","PERIOD":"95.592","NORAD_CAT_ID":"45758","TLE_LINE1":"1 45758U 20038AE  22116.88164588  .00002977  00000-0  21866-3 0  9993","MEAN_ELEMENT_THEORY":"SGP4","GP_ID":"202108293","OBJECT_NAME":"STARLINK-1487","OBJECT_TYPE":"PAYLOAD","REV_AT_EPOCH":"10352","MEAN_MOTION":"15.06402231","TLE_LINE2":"2 45758  53.0538  78.9557 0001749  48.5789 311.5350 15.06402231103521","RA_OF_ASC_NODE":"78.9557","ELEMENT_SET_NO":"999","REF_FRAME":"TEME","CLASSIFICATION_TYPE":"U","RCS_SIZE":"LARGE","COUNTRY_CODE":"US","PERIAPSIS":"545.995","CENTER_NAME":"EARTH","SITE":"AFETR","OBJECT_ID":"2020-038AE","ECCENTRICITY":"0.00017490","MEAN_ANOMALY":"311.5350","LAUNCH_DATE":"2020-06-13","FILE":"3417474","APOAPSIS":"548.418","INCLINATION":"53.0538","BSTAR":"0.00021866000000"}];
